STARLINK-1650           
1 46573U 20070AT  21108.69088768 -.00000324  00000-0 -28856-5 0  9993
2 46573  53.0579 259.2775 0001517 107.8472 252.2682 15.06403683 30529
STARLINK-1660           
1 46574U 20070AU  21108.67614619  .00001854  00000-0  14332-3 0  9991
2 46574  53.0557 259.3419 0001313 112.6924 247.4203 15.06406747 30521
STARLINK-1675           
1 46575U 20070AV  21108.73464144  .00000081  00000-0  24320-4 0  9995
2 46575  53.0578 234.0566 0001566 122.1554 237.9587 15.06398298 30871
STARLINK-1677           
1 46576U 20070AW  21108.80148446 -.00000097  00000-0  12403-4 0  9995
2 46576  53.0577 258.7810 0001218 131.8700 228.2393 15.06392466 30543
STARLINK-1682           
1 46577U 20070AX  21108.83095696 -.00000324  00000-0 -28216-5 0  9991
2 46577  53.0567 258.6458 0001568 112.1307 247.9849 15.06401144 30541
STARLINK-1683           
1 46578U 20070AY  21108.67473691  .00000470  00000-0  50452-4 0  9995
2 46578  53.0634 244.3247 0001833 113.0624 247.0558 15.06407972 30736
STARLINK-1705           
1 46579U 20070AZ  21108.74988195  .00003261  00000-0  23761-3 0  9997
2 46579  53.0551 259.0110 0001119 107.2050 252.9061 15.06417089 30534
STARLINK-1708           
1 46580U 20070BA  21108.86044802  .00001134  00000-0  95002-4 0  9995
2 46580  53.0577 258.5104 0001143 108.6292 251.4821 15.06400545 30550
STARLINK-1712           
1 46581U 20070BB  21108.82589226  .00000170  00000-0  30336-4 0  9994
2 46581  53.0509 253.6885 0001551 110.8996 249.2159 15.06395175 30615
STARLINK-1728           
1 46582U 20070BC  21108.81757364  .00000120  00000-0  26934-4 0  9998
2 46582  53.0569 253.7039 0001359 106.9058 253.2080 15.06408238 30618
STARLINK-1729           
1 46583U 20070BD  21108.86090977 -.00000256  00000-0  17531-5 0  9999
2 46583  53.0591 273.5093 0002384 107.8764 252.2485 15.06399369 30338
STARLINK-1732           
1 46584U 20070BE  21108.74848344  .00001733  00000-0  13521-3 0  9999
2 46584  53.0582 254.0172 0001326 117.5130 242.5993 15.06408090 30609
STARLINK-1736           
1 46585U 20070BF  21108.83326874 -.00000023  00000-0  17354-4 0  9990
2 46585  53.0571 253.6383 0001457 109.7428 250.3718 15.06395393 30619
STARLINK-1737           
1 46586U 20070BG  21108.88854767  .00000276  00000-0  37392-4 0  9996
2 46586  53.0567 253.3836 0001568 109.9473 250.1685 15.06404685 30627
STARLINK-1744           
1 46587U 20070BH  21108.64636298  .00044824  00000-0  89401-3 0  9992
2 46587  53.0314 211.1396 0002091  68.0639 292.0589 15.46439870 31663
STARLINK-1746           
1 46588U 20070BJ  21108.87011782  .00001469  00000-0  11750-3 0  9993
2 46588  53.0568 253.4723 0001328 107.7191 252.3943 15.06405720 30625
STARLINK-1749           
1 46589U 20070BK  21108.73005900 -.00000284  00000-0 -90478-7 0  9998
2 46589  53.0394 254.1704 0004891 115.5655 244.5840 15.06395431 30592
STARLINK-1754           
1 46590U 20070BL  21108.67763469 -.00015670  00000-0 -18360-3 0  9995
2 46590  53.0595 213.4020 0002479  34.4815 325.6357 15.60116443 31165
STARLINK-1755           
1 46591U 20070BM  21108.85169470  .00000303  00000-0  39231-4 0  9994
2 46591  53.0642 253.5172 0002327 112.7697 247.3538 15.06401862 29678
FLOCK 4V-21             
1 46596U 20061BK  21108.89427791  .00001093  00000-0  60045-4 0  9990
2 46596  97.4341 183.7083 0005351 136.7904 223.3750 15.16156249 28231
FLOCK 4V-18             
1 46597U 20061BG  21108.91669952  .00003620  00000-0  19358-3 0  9999
2 46597  97.4459 183.8351 0008371 154.3418 205.8231 15.15670020 29453
FLOCK 4V-19             
1 46609U 20061BH  21108.67174645  .00000898  00000-0  49607-4 0  9991
2 46609  97.4346 183.5562 0004678 134.8896 225.2717 15.16395090 28975
GAOFEN 13               
1 46610U 20071A   21108.88552295 -.00000362  00000-0  00000-0 0  9995
2 46610   1.5490 279.6074 0004680 245.0486 119.1663  1.00270587  2010
FLOCK 4V-20             
1 46612U 20061BJ  21108.86473151  .00004000  00000-0  21430-3 0  9992
2 46612  97.4447 183.7161 0008591 159.7569 200.4006 15.15544303 28517
STARLINK-1715           
1 46671U 20073B   21108.92354036  .00000946  00000-0  82413-4 0  9991
2 46671  53.0569 343.2278 0001884  93.1297 266.9907 15.06405412 27900
STARLINK-1716           
1 46672U 20073C   21108.89730921 -.00000318  00000-0 -24536-5 0  9997
2 46672  53.0590 338.3420 0001736  85.5372 274.5815 15.06396093 27978
STARLINK-1717           
1 46673U 20073D   21108.93367508  .00001526  00000-0  12129-3 0  9993
2 46673  53.0558 353.2010 0001872  85.1890 274.9313 15.06403883 27766
STARLINK-1718           
1 46674U 20073E   21108.92310479 -.00000471  00000-0 -12742-4 0  9990
2 46674  53.0578 338.2316 0001869  87.6982 272.4221 15.06400705 27970
STARLINK-1720           
1 46675U 20073F   21108.91941246  .00000098  00000-0  25462-4 0  9998
2 46675  53.0578 338.2480 0001668  86.2126 273.9053 15.06408188 27977
STARLINK-1731           
1 46676U 20073G   21108.87703098  .00001097  00000-0  92639-4 0  9995
2 46676  53.1112 318.1424 0007545 346.7802  13.2989 15.06401151 28745
STARLINK-1766           
1 46677U 20073H   21108.91573215  .00000016  00000-0  19974-4 0  9998
2 46677  53.0569 338.2657 0001813  92.7649 267.3548 15.06402354 27974
STARLINK-1773           
1 46679U 20073K   21108.85491652 -.00000378  00000-0 -63211-5 0  9994
2 46679  53.0527 318.5347 0006182  16.0189 344.0994 15.06399863 28248
STARLINK-1774           
1 46680U 20073L   21108.92356779 -.00000150  00000-0  88552-5 0  9996
2 46680  53.0548 353.2443 0001400  91.2369 268.8780 15.06399226 27764
STARLINK-1775           
1 46681U 20073M   21108.96041983  .00001670  00000-0  13099-3 0  9998
2 46681  53.0542 353.0586 0001688  84.4687 275.6494 15.06407611 27766
STARLINK-1776           
1 46682U 20073N   21108.91988385 -.00000697  00000-0 -27875-4 0  9998
2 46682  53.0558 353.2534 0001822  76.1298 283.9893 15.06396331 27766
STARLINK-1778           
1 46683U 20073P   21108.90144720  .00000649  00000-0  62467-4 0  9996
2 46683  53.0471 353.3531 0002029  82.9496 277.1724 15.06393435 27753
STARLINK-1780           
1 46684U 20073Q   21108.90835949  .00000335  00000-0  41417-4 0  9991
2 46684  53.0562 338.3094 0002027  77.4452 282.6764 15.06405121 27976
STARLINK-1781           
1 46685U 20073R   21108.96411413 -.00000104  00000-0  11939-4 0  9995
2 46685  53.0542 353.0437 0001620  79.8241 280.2930 15.06391710 27764
STARLINK-1783           
1 46686U 20073S   21108.94568231  .00001431  00000-0  11493-3 0  9992
2 46686  53.0560 353.1348 0001898  92.2391 267.8815 15.06401338 27760
STARLINK-1784           
1 46687U 20073T   21108.86597331  .00001450  00000-0  11621-3 0  9991
2 46687  53.0554 318.4807 0002230  98.0012 262.1230 15.06402695 28726
STARLINK-1786           
1 46688U 20073U   21108.90716629  .00168901  00000-0  10677-1 0  9993
2 46688  53.0564 353.2946 0003595  62.6019 297.5336 15.07799649 27769
STARLINK-1788           
1 46689U 20073V   21108.95673569 -.00000564  00000-0 -18938-4 0  9997
2 46689  53.0565 353.0831 0001812  82.7478 277.3717 15.06401625 29016
STARLINK-1789           
1 46690U 20073W   21108.89085758  .00000128  00000-0  27486-4 0  9991
2 46690  53.0467 328.4015 0001951  95.8274 264.2938 15.06397045 28101
STARLINK-1790           
1 46691U 20073X   21108.88994957  .00004650  00000-0  33093-3 0  9995
2 46691  53.0517 338.3886 0001792  86.5709 273.5485 15.06393580 27960
STARLINK-1791           
1 46692U 20073Y   21108.94199444  .00001709  00000-0  13363-3 0  9991
2 46692  53.0572 353.1593 0001962  76.5740 283.5468 15.06403172 27764
STARLINK-1792           
1 46693U 20073Z   21108.89361711  .00001159  00000-0  96670-4 0  9996
2 46693  53.0490 338.3787 0001480  98.4076 261.7080 15.06399617 27962
STARLINK-1793           
1 46694U 20073AA  21108.85123028  .00001641  00000-0  12910-3 0  9990
2 46694  53.0540 318.5430 0008544   9.3282 350.7864 15.06404679 28248
STARLINK-1794           
1 46695U 20073AB  21108.97148102 -.00000204  00000-0  52237-5 0  9997
2 46695  53.0553 353.0246 0002044  81.1749 278.9471 15.06403128 27777
STARLINK-1795           
1 46696U 20073AC  21108.86965910  .00001807  00000-0  14021-3 0  9996
2 46696  53.0531 318.4636 0002293  92.7530 267.3721 15.06400309 28245
STARLINK-1796           
1 46697U 20073AD  21108.84078205  .00105516  00000-0  64424-2 0  9990
2 46697  53.0563 353.5514 0001887  65.9355 294.1833 15.09440613 28237
STARLINK-1797           
1 46698U 20073AE  21108.92679545  .00000232  00000-0  34457-4 0  9998
2 46698  53.0570 338.2095 0001846  86.6734 273.4466 15.06400815 27975
STARLINK-1799           
1 46699U 20073AF  21108.93048084 -.00000614  00000-0 -22329-4 0  9999
2 46699  53.0559 338.1903 0001881  87.3327 272.7877 15.06397081 27973
STARLINK-1800           
1 46700U 20073AG  21108.93462496  .00001144  00000-0  95703-4 0  9992
2 46700  53.0567 353.1890 0001808  77.6675 282.4516 15.06400174 27767
STARLINK-1801           
1 46701U 20073AH  21108.90098806  .00000311  00000-0  39796-4 0  9995
2 46701  53.0562 338.3451 0001916  89.0323 271.0885 15.06402281 27975
STARLINK-1802           
1 46702U 20073AJ  21108.84754495 -.00000550  00000-0 -17871-4 0  9999
2 46702  53.0545 318.5605 0006230  15.2240 344.8936 15.06398739 28240
STARLINK-1803           
1 46703U 20073AK  21108.87887074  .00001088  00000-0  91945-4 0  9992
2 46703  53.0568 338.4287 0001908  77.6201 282.5002 15.06400504 27963
STARLINK-1804           
1 46704U 20073AL  21108.85860104  .00001303  00000-0  10645-3 0  9993
2 46704  53.0500 318.5363 0006405  15.6491 344.4695 15.06396306 28246
STARLINK-1805           
1 46705U 20073AM  21108.93831082  .00001040  00000-0  88682-4 0  9991
2 46705  53.0553 353.1772 0001775  83.2509 276.8682 15.06399726 27769
STARLINK-1807           
1 46706U 20073AN  21108.91205014  .00001141  00000-0  95477-4 0  9992
2 46706  53.0568 338.2900 0001810  77.4853 282.6338 15.06403686 27977
